STARLINK-31388          
1 59565U 24076B   26068.18930134 -.00003158  00000+0 -10530-3 0  9990
2 59565  43.0037  12.0667 0000819 304.7804  55.2971 15.27581070106423
LUR-1                   
1 60506U 24149AQ  26068.79566301  .00009121  00000+0  32985-3 0  9998
2 60506  97.3790 148.4255 0002777 309.1571  50.9421 15.28658648 86785
